COSMOS 2425 (716)       
1 29670U 06062A   17292.43496317 -.00000016  00000-0  10000-3 0  9998
2 29670  65.4000 300.6710 0020717 337.6223  75.6142  2.13104996 84182
COSMOS 2426 (717)       
1 29671U 06062B   17291.67283419 -.00000010  00000-0  10000-3 0  9995
2 29671  65.4184 300.7896 0018442 174.2328 231.7499  2.13103007 84176
COSMOS 2433 (720)       
1 32275U 07052A   17291.72791605 -.00000046  00000-0  10000-3 0  9995
2 32275  65.5732  61.4740 0001783 209.2402 213.4776  2.13104790 77684
COSMOS 2432 (719)       
1 32276U 07052B   17291.54559166 -.00000045  00000-0  10000-3 0  9999
2 32276  65.5855  61.5534 0009423 341.4270 254.0162  2.13103990 77674
COSMOS 2434 (721)       
1 32393U 07065A   17291.94242369 -.00000014  00000-0  00000-0 0  9993
2 32393  65.0167 299.7776 0003036 159.7628 316.5190  2.13102977 76396
COSMOS 2436 (723)       
1 32395U 07065C   17291.74275024 -.00000012  00000-0  10000-3 0  9999
2 32395  65.0268 299.8331 0013792 349.3686  23.0392  2.13104386 76322
COSMOS 2456 (730)       
1 36111U 09070A   17291.49012987  .00000026  00000-0  00000-0 0  9996
2 36111  64.1795 179.3618 0004238 319.3207 341.5070  2.13103003 61047
COSMOS 2457 (733)       
1 36112U 09070B   17292.07331420  .00000030  00000-0  00000+0 0  9992
2 36112  64.1621 179.2587 0006196 164.7774 351.4573  2.13101755 61068
COSMOS 2458 (734)       
1 36113U 09070C   17291.58547589  .00000027  00000-0  10000-3 0  9994
2 36113  64.1684 179.2839 0001737  13.8952 176.1672  2.13101921 61052
COSMOS 2459 (731)       
1 36400U 10007A   17291.87601847 -.00000048  00000-0  10000-3 0  9999
2 36400  65.4824  60.5602 0025707 355.7488  41.6197  2.13102201 59413
COSMOS 2461 (735)       
1 36401U 10007B   17292.42046654 -.00000048  00000-0  10000-3 0  9991
2 36401  65.4750  60.5184 0007849  81.4384 284.2250  2.13102151 59422
COSMOS 2460 (732)       
1 36402U 10007C   17292.37872142 -.00000048  00000-0  10000-3 0  9995
2 36402  65.4659  60.4907 0002095 121.6482 253.0315  2.13101738 59423
COSMOS 2464 (736)       
1 37139U 10041C   17291.77006600 -.00000013  00000-0  00000-0 0  9990
2 37139  64.6216 299.7097 0021476   6.2254 205.5683  2.13102718 55477
COSMOS 2471 (701K)      
1 37372U 11009A   17291.77728012 -.00000048  00000-0  00000+0 0  9999
2 37372  65.4631  60.4574 0007800 222.0471 190.0037  2.13107708 51687
COSMOS 2474 (742)       
1 37829U 11055A   17292.43314656  .00000032  00000-0  00000+0 0  9998
2 37829  64.5035 179.9464 0008057 248.6249 274.8834  2.13101962 47067
COSMOS 2476 (744)       
1 37867U 11064A   17291.76705727  .00000027  00000-0  00000-0 0  9993
2 37867  64.4842 180.0370 0017481 242.8497 175.6271  2.13102011 46401
COSMOS 2477 (745)       
1 37868U 11064B   17291.71720855  .00000027  00000-0  00000+0 0  9997
2 37868  64.4924 180.0842 0015421 244.0809 315.2201  2.13101917 46353
COSMOS 2475 (743)       
1 37869U 11064C   17291.89374936  .00000028  00000-0  00000-0 0  9994
2 37869  64.4993 180.0707 0020152 270.5016  20.7609  2.13102279 46364
COSMOS 2485 (747)       
1 39155U 13019A   17292.23742863  .00000031  00000-0  00000+0 0  9996
2 39155  64.6538 180.0774 0017977 237.4805 226.8405  2.13102090 34882
COSMOS 2492 (754)       
1 39620U 14012A   17291.76183101 -.00000048  00000-0  10000-3 0  9992
2 39620  65.3553  60.4307 0012785 334.5363 159.3106  2.13103438 27828
COSMOS 2500 (755)       
1 40001U 14032A   17292.24794819 -.00000048  00000-0  00000+0 0  9992
2 40001  65.2965  60.4026 0006598 188.3914 181.1852  2.13102797 26051
COSMOS 2501 (702K)      
1 40315U 14075A   17291.68940642 -.00000014  00000-0  00000+0 0  9994
2 40315  64.3472 301.0117 0016999 212.1924 253.3784  2.13098646 22442
COSMOS 2514 (751)       
1 41330U 16008A   17292.08070898 -.00000048  00000-0  00000+0 0  9999
2 41330  65.0969  60.5206 0009519 203.4042 218.1702  2.13103372 13216
COSMOS 2516 (753)       
1 41554U 16032A   17291.71780898 -.00000013  00000-0  00000+0 0  9993
2 41554  64.5677 300.8076 0014661 224.6324 170.5182  2.13101716 10817
COSMOS 2522 (752)       
1 42939U 17055A   17292.44436304 -.00000018  00000-0  00000+0 0  9993
2 42939  64.7968 300.6789 0010321 248.8705 210.0193  2.13101821   581
